OBJECT_NAME,OBJECT_ID,EPOCH,MEAN_MOTION,ECCENTRICITY,INCLINATION,RA_OF_ASC_NODE,ARG_OF_PERICENTER,MEAN_ANOMALY,EPHEMERIS_TYPE,CLASSIFICATION_TYPE,NORAD_CAT_ID,ELEMENT_SET_NO,REV_AT_EPOCH,BSTAR,MEAN_MOTION_DOT,MEAN_MOTION_DDOT
EUTELSAT HOTBIRD 13C,2008-065A,2026-07-17T11:19:22.998144,1.00270073,.000346,3.0264,78.8308,38.8266,297.1567,0,U,33459,999,4764,0,-.294E-5,0
EXPRESS-AM44,2009-007A,2026-07-17T09:47:59.272224,1.00271123,.0003599,3.5393,78.0228,32.1084,321.0612,0,U,33595,999,5258,0,-.101E-5,0
NSS-9,2009-008A,2026-07-17T13:30:38.696832,1.00272999,.0001955,1.3385,82.3574,22.9811,215.7665,0,U,33749,999,6382,0,.62E-6,0
TELSTAR 11N,2009-009A,2026-07-17T09:40:22.502208,1.00272560,.0002274,0.0212,296.8450,170.2493,295.6572,0,U,34111,999,4654,0,-.26E-5,0
WGS F2 (USA 204),2009-017A,2026-07-17T15:15:27.675936,1.00273515,.0000372,0.0152,55.8280,144.8534,21.1171,0,U,34713,999,4592,0,.58E-6,0
SES-7 (PROTOSTAR 2),2009-027A,2026-07-17T16:51:38.750112,1.00271976,.0000206,0.0145,54.3660,220.2886,22.0124,0,U,34941,999,6293,0,-.354E-5,0
MEASAT-3A,2009-032A,2026-07-17T14:02:05.049024,1.00272053,.0002743,0.0282,335.8689,131.0523,198.9867,0,U,35362,999,833,0,-.12E-5,0
EWS-G3 (GOES 14),2009-033A,2026-07-17T16:43:38.811072,1.00096994,.0002017,1.7666,82.6625,39.8974,187.3661,0,U,35491,999,689,0,-.369E-5,0
FM-5,2009-034A,2026-07-17T12:51:52.236000,1.00268994,.0000896,0.0504,254.5777,104.1827,43.3849,0,U,35493,999,4694,0,-.209E-5,0
TERRESTAR-1,2009-035A,2026-07-17T14:27:25.118784,1.00272954,.0002504,5.1944,48.7674,61.3853,291.1279,0,U,35496,999,6243,0,-.68E-6,0
ASIASAT 5,2009-042A,2026-07-17T13:45:04.390272,1.00265888,.0001442,0.0330,79.5962,28.5188,134.1163,0,U,35696,999,6201,0,0,0
JCSAT-12 (JCSAT-RA),2009-044A,2026-07-17T15:36:44.972064,1.00271192,.0000905,0.0499,262.3352,287.8174,111.5500,0,U,35755,999,6191,0,-.337E-5,0
OPTUS D3,2009-044B,2026-07-17T14:00:50.167008,1.00270614,.0003237,0.8945,268.1874,211.2815,182.2669,0,U,35756,999,6187,0,-.155E-5,0
NIMIQ 5,2009-050A,2026-07-17T09:30:23.458176,1.00270278,.0002639,0.0445,249.5097,221.6919,253.8963,0,U,35873,999,6164,0,-.266E-5,0
AMAZONAS 2,2009-054A,2026-07-17T09:30:30.947328,1.00273469,.0003257,1.8920,82.6605,29.5931,253.5775,0,U,35942,999,6148,0,-.27E-5,0
COMSATBW-1,2009-054B,2026-07-17T15:56:02.009760,1.00270712,.0002746,0.0645,164.9027,311.8331,120.7536,0,U,35943,999,6161,0,.16E-6,0
NSS-12,2009-058A,2026-07-17T15:15:20.189376,1.00271674,.0004901,0.0860,269.3666,170.5737,141.3246,0,U,36032,999,6122,0,.62E-6,0
THOR 6,2009-058B,2026-07-17T14:58:52.105152,1.00271726,.0001696,0.0183,99.8883,18.3921,41.0189,0,U,36033,999,6131,0,-.19E-6,0
INTELSAT 14 (IS-14),2009-064A,2026-07-17T13:56:06.217728,1.00270040,.0002426,0.0172,42.8362,74.7534,341.8399,0,U,36097,999,6091,0,0,0
EUTELSAT 36B,2009-065A,2026-07-17T16:30:38.657088,1.00269152,.0005594,0.5659,81.3305,32.3405,119.9843,0,U,36101,999,6101,0,.103E-5,0
INTELSAT 15 (IS-15),2009-067A,2026-07-17T15:23:19.423392,1.00270400,.0002262,0.0203,46.9456,68.7098,135.7866,0,U,36106,999,4153,0,0,0
WGS F3 (USA 211),2009-068A,2026-07-17T14:22:03.135360,1.00271133,.0000594,0.2966,85.6659,92.0364,203.2232,0,U,36108,999,4689,0,.55E-6,0
DIRECTV 12,2009-075A,2026-07-17T14:29:47.391936,1.00272808,.0000254,0.0447,222.1598,342.1549,205.8215,0,U,36131,999,4685,0,-.113E-5,0
BEIDOU-2 G1,2010-001A,2026-07-17T13:56:28.087296,1.00271145,.0001876,4.3633,60.3035,287.4665,297.2018,0,U,36287,999,6047,0,-.291E-5,0
SDO,2010-005A,2026-07-17T05:45:45.515232,1.00277241,.000179,34.7122,85.8846,45.4971,147.9067,0,U,36395,999,6036,0,-.96E-6,0
INTELSAT 16 (IS-16),2010-006A,2026-07-17T13:26:07.754208,1.00271953,.0002327,0.0162,59.1351,76.6378,284.9205,0,U,36397,999,5995,0,-.254E-5,0
EWS-G2 (GOES 15),2010-008A,2026-07-17T15:56:02.033088,1.00268908,.000533,1.3597,82.4311,54.3620,100.9749,0,U,36411,999,5994,0,.13E-6,0
ECHOSTAR 14,2010-010A,2026-07-17T14:25:10.334784,1.00272006,.0001952,0.0423,239.0658,220.3998,293.3225,0,U,36499,999,4685,0,-.9E-7,0
SES-1,2010-016A,2026-07-17T14:30:17.345088,1.00271849,.000247,0.0580,270.6177,200.9475,300.4190,0,U,36516,999,5933,0,-.124E-5,0
ASTRA 3B,2010-021A,2026-07-17T17:44:38.906016,1.00271317,.0004344,1.5456,83.1806,23.7636,118.2591,0,U,36581,999,5917,0,.127E-5,0
COMSATBW-2,2010-021B,2026-07-17T17:37:47.280864,1.00268039,.0002197,0.0436,175.4477,308.5216,89.2545,0,U,36582,999,5926,0,.79E-6,0
BEIDOU-2 G3,2010-024A,2026-07-17T15:54:14.783040,1.00268177,.0006934,4.5862,61.3777,359.4783,192.7114,0,U,36590,999,5907,0,-.144E-5,0
